{
  "norad_id": 46496,
  "name": "ICEYE-X7",
  "history": [
    {
      "epoch": "2026-03-28T22:14:25.692864",
      "apogee_km": 480.8501829347297,
      "perigee_km": 472.7075026017392,
      "latitude_deg": 25.92449656408163,
      "longitude_deg": -1.4381190398707986,
      "semi_major_axis_km": 6854.915842768234,
      "eccentricity": 0.00059393,
      "inclination_deg": 97.743,
      "raan_deg": 50.9554,
      "arg_perigee_deg": 244.9253,
      "mean_anomaly_deg": 115.137,
      "mean_motion_rev_day": 15.29676416
    },
    {
      "epoch": "2026-03-29T04:31:13.086624",
      "apogee_km": 480.8395902938373,
      "perigee_km": 472.6658198095338,
      "latitude_deg": -83.02659563957835,
      "longitude_deg": 23.68120736000128,
      "semi_major_axis_km": 6854.889705051685,
      "eccentricity": 0.0005962,
      "inclination_deg": 97.743,
      "raan_deg": 51.2278,
      "arg_perigee_deg": 243.6685,
      "mean_anomaly_deg": 116.3942,
      "mean_motion_rev_day": 15.29685165
    }
  ]
}